[{"OBJECT_NAME":"STARLINK-34829","OBJECT_ID":"2025-195N","EPOCH":"2026-03-09T22:25:06.825792","MEAN_MOTION":15.30194592,"ECCENTRICITY":0.00010356,"INCLINATION":53.1581,"RA_OF_ASC_NODE":256.8659,"ARG_OF_PERICENTER":78.8495,"MEAN_ANOMALY":281.2622,"EPHEMERIS_TYPE":0,"CLASSIFICATION_TYPE":"U","NORAD_CAT_ID":65470,"ELEMENT_SET_NO":999,"REV_AT_EPOCH":3003,"BSTAR":0.0011408299,"MEAN_MOTION_DOT":0.00033576,"MEAN_MOTION_DDOT":0},{"OBJECT_NAME":"CZ-4B DEB","OBJECT_ID":"1999-057H","EPOCH":"2026-03-09T17:25:29.363520","MEAN_MOTION":15.25756771,"ECCENTRICITY":0.00339549,"INCLINATION":98.6728,"RA_OF_ASC_NODE":149.1557,"ARG_OF_PERICENTER":175.409,"MEAN_ANOMALY":184.7463,"EPHEMERIS_TYPE":0,"CLASSIFICATION_TYPE":"U","NORAD_CAT_ID":26121,"ELEMENT_SET_NO":999,"REV_AT_EPOCH":41150,"BSTAR":0.00075758105,"MEAN_MOTION_DOT":0.00019602,"MEAN_MOTION_DDOT":0}]
